[{"OBJECT_NAME":"STARLINK-5767","OBJECT_ID":"2023-020T","EPOCH":"2026-03-09T22:00:01.999584","MEAN_MOTION":15.13072971,"ECCENTRICITY":8.839e-5,"INCLINATION":43.0001,"RA_OF_ASC_NODE":2.8554,"ARG_OF_PERICENTER":253.5362,"MEAN_ANOMALY":331.6672,"EPHEMERIS_TYPE":0,"CLASSIFICATION_TYPE":"U","NORAD_CAT_ID":55586,"ELEMENT_SET_NO":999,"REV_AT_EPOCH":573,"BSTAR":0.0015565881,"MEAN_MOTION_DOT":0.00027911,"MEAN_MOTION_DDOT":0},{"OBJECT_NAME":"CZ-4B R\/B","OBJECT_ID":"2014-079B","EPOCH":"2026-03-09T22:52:27.338880","MEAN_MOTION":15.04904185,"ECCENTRICITY":0.01415279,"INCLINATION":98.4648,"RA_OF_ASC_NODE":154.7469,"ARG_OF_PERICENTER":308.4035,"MEAN_ANOMALY":50.4548,"EPHEMERIS_TYPE":0,"CLASSIFICATION_TYPE":"U","NORAD_CAT_ID":40337,"ELEMENT_SET_NO":999,"REV_AT_EPOCH":61279,"BSTAR":0.00019142184,"MEAN_MOTION_DOT":3.298e-5,"MEAN_MOTION_DDOT":0}]
